IRIDIUM 126             
1 42809U 17039G   24200.76577218  .00000248  00000+0  81421-4 0  9997
2 42809  86.3964 285.4990 0002278  98.7882 261.3571 14.34217179369843
IRIDIUM 124             
1 42810U 17039H   24200.61357155  .00000250  00000+0  68466-4 0  9996
2 42810  86.4488 222.2965 0002596  85.8986 274.2511 14.43278635374356
IRIDIUM 128             
1 42811U 17039J   24200.75651206  .00000110  00000+0  32207-4 0  9995
2 42811  86.3989 317.0344 0002385  94.9334 265.2134 14.34218570369874
IRIDIUM 121             
1 42812U 17039K   24200.64527234  .00000041  00000+0  74313-5 0  9995
2 42812  86.3966 285.5723 0002256  93.3011 266.8443 14.34215128369700
IRIDIUM 133             
1 42955U 17061A   24200.85799361  .00000195  00000+0  62544-4 0  9995
2 42955  86.3990 317.0924 0002170  99.1364 261.0077 14.34217048354683
IRIDIUM 100             
1 42956U 17061B   24200.85165101  .00000066  00000+0  16350-4 0  9996
2 42956  86.3989 317.0300 0002162  96.4760 263.6682 14.34217859354681
IRIDIUM 122             
1 42957U 17061C   24200.88970655  .00000122  00000+0  36403-4 0  9992
2 42957  86.3989 317.0125 0002243  98.0909 262.0541 14.34217937354695
IRIDIUM 129             
1 42958U 17061D   24200.56623548 -.00000024  00000+0 -15537-4 0  9992
2 42958  86.3988 317.2074 0002239 102.1823 257.9624 14.34217391354663
